NORAD_CAT_ID,OBJECT_NAME,OBJECT_TYPE,EPOCH,MEAN_MOTION,ECCENTRICITY,INCLINATION,RA_OF_ASC_NODE,ARG_OF_PERICENTER,MEAN_ANOMALY,BSTAR,MEAN_MOTION_DOT,MEAN_MOTION_DDOT,TLE_LINE0,TLE_LINE1,TLE_LINE2,SEMIMAJOR_AXIS,PERIOD,APOGEE,PERIGEE,DECAYED
53900.0,STARLINK-5045,PAYLOAD,2023-04-02 10:07:18,15.0883882,0.000148,53.2192,97.3565,131.6877,228.4242,-0.0002597,-4.419e-05,0.0,0 STARLINK-5045,1 53900U 22119Q   23092.42174119 -.00004419  00000-0 -25970-3 0  9993,2 53900  53.2192  97.3565 0001480 131.6877 228.4242 15.08838820 29819,6917.884,95.438,540.773,538.725,0.0
53900.0,STARLINK-5045,PAYLOAD,2023-04-03 03:36:32,15.08842051,0.0001388,53.2183,94.0874,95.5164,264.5986,-8.8781e-06,-4.29e-06,0.0,0 STARLINK-5045,1 53900U 22119Q   23093.15037497 -.00000429  00000-0 -88781-5 0  9999,2 53900  53.2183  94.0874 0001388  95.5164 264.5986 15.08842051 29503,6917.874,95.437,540.699,538.779,0.0
53900.0,STARLINK-5045,PAYLOAD,2023-04-03 09:58:04,15.08844609,0.0001443,53.2171,92.8996,77.7953,282.32,0.00012449,1.694e-05,0.0,0 STARLINK-5045,1 53900U 22119Q   23093.41533524  .00001694  00000-0  12449-3 0  9999,2 53900  53.2171  92.8996 0001443  77.7953 282.3200 15.08844609 29969,6917.866,95.437,540.73,538.733,0.0
53900.0,STARLINK-5045,PAYLOAD,2023-04-04 03:27:20,15.08835506,0.0001537,53.2163,89.6287,77.3452,282.7712,0.00025866,3.83e-05,0.0,0 STARLINK-5045,1 53900U 22119Q   23094.14398568  .00003830  00000-0  25866-3 0  9998,2 53900  53.2163  89.6287 0001537  77.3452 282.7712 15.08835506 29655,6917.894,95.438,540.822,538.696,0.0
53900.0,STARLINK-5045,PAYLOAD,2023-04-04 09:48:52,15.08843182,0.0001473,53.2167,88.439,80.5203,279.5956,0.00029555,4.419e-05,0.0,0 STARLINK-5045,1 53900U 22119Q   23094.40894269  .00004419  00000-0  29555-3 0  9999,2 53900  53.2167  88.4390 0001473  80.5203 279.5956 15.08843182 30116,6917.871,95.437,540.755,538.717,0.0
53900.0,STARLINK-5045,PAYLOAD,2023-04-05 04:53:30,15.08837684,0.0001362,53.2171,84.8696,84.8012,275.3135,3.1122e-05,2.07e-06,0.0,0 STARLINK-5045,1 53900U 22119Q   23095.20382635  .00000207  00000-0  31122-4 0  9992,2 53900  53.2171  84.8696 0001362  84.8012 275.3135 15.08837684 29810,6917.887,95.438,540.695,538.81,0.0
53900.0,STARLINK-5045,PAYLOAD,2023-04-05 08:04:16,15.0883912,0.0001387,53.2164,84.2754,89.444,270.6711,5.7326e-05,6.25e-06,0.0,0 STARLINK-5045,1 53900U 22119Q   23095.33630584  .00000625  00000-0  57326-4 0  9993,2 53900  53.2164  84.2754 0001387  89.4440 270.6711 15.08839120 30259,6917.883,95.438,540.708,538.789,0.0
53900.0,STARLINK-5045,PAYLOAD,2023-04-05 16:01:12,15.08837258,0.0001353,53.2169,82.7882,89.5916,270.5231,5.7262e-05,6.23e-06,0.0,0 STARLINK-5045,1 53900U 22119Q   23095.66750742  .00000623  00000-0  57262-4 0  9995,2 53900  53.2169  82.7882 0001353  89.5916 270.5231 15.08837258 30303,6917.889,95.438,540.69,538.818,0.0
53900.0,STARLINK-5045,PAYLOAD,2023-04-06 07:55:03,15.08843785,0.0001342,53.2168,79.8147,93.3881,266.7264,0.00018233,2.615e-05,0.0,0 STARLINK-5045,1 53900U 22119Q   23096.32990603  .00002615  00000-0  18233-3 0  9998,2 53900  53.2168  79.8147 0001342  93.3881 266.7264 15.08843785 29982,6917.869,95.437,540.662,538.805,0.0
53900.0,STARLINK-5045,PAYLOAD,2023-04-06 22:13:32,15.08837234,0.000148,53.2176,77.1388,92.8465,267.2696,0.00010263,1.346e-05,0.0,0 STARLINK-5045,1 53900U 22119Q   23096.92607003  .00001346  00000-0  10263-3 0  9998,2 53900  53.2176  77.1388 0001480  92.8465 267.2696 15.08837234 30499,6917.889,95.438,540.778,538.73,0.0
53900.0,STARLINK-5045,PAYLOAD,2023-04-06 23:48:55,15.08834394,0.0001375,53.2178,76.8415,92.0712,268.0437,-1.336e-05,-5e-06,0.0,0 STARLINK-5045,1 53900U 22119Q   23096.99231078 -.00000500  00000-0 -13360-4 0  9995,2 53900  53.2178  76.8415 0001375  92.0712 268.0437 15.08834394 30089,6917.898,95.438,540.714,538.811,0.0
53900.0,STARLINK-5045,PAYLOAD,2023-04-07 07:45:51,15.08839792,0.0001345,53.218,75.3548,93.9192,266.1954,9.0953e-05,1.16e-05,0.0,0 STARLINK-5045,1 53900U 22119Q   23097.32350986  .00001160  00000-0  90953-4 0  9997,2 53900  53.2180  75.3548 0001345  93.9192 266.1954 15.08839792 30554,6917.881,95.438,540.676,538.816,0.0
53900.0,STARLINK-5045,PAYLOAD,2023-04-08 04:25:52,15.08838245,0.0001156,53.2175,71.4889,91.6603,268.4522,8.851e-05,1.121e-05,0.0,0 STARLINK-5045,1 53900U 22119Q   23098.18463276  .00001121  00000-0  88510-4 0  9992,2 53900  53.2175  71.4889 0001156  91.6603 268.4522 15.08838245 30261,6917.886,95.438,540.55,538.951,0.0
53900.0,STARLINK-5045,PAYLOAD,2023-04-08 07:36:38,15.08841502,0.0001221,53.2174,70.8937,93.53,266.5832,8.9755e-05,1.141e-05,0.0,0 STARLINK-5045,1 53900U 22119Q   23098.31711142  .00001141  00000-0  89755-4 0  9999,2 53900  53.2174  70.8937 0001221  93.5300 266.5832 15.08841502 30707,6917.876,95.437,540.585,538.896,0.0
53900.0,STARLINK-5045,PAYLOAD,2023-04-09 07:27:25,15.08846677,0.0001133,53.2174,66.4333,94.6595,265.4527,0.00018623,2.678e-05,0.0,0 STARLINK-5045,1 53900U 22119Q   23099.31070856  .00002678  00000-0  18623-3 0  9991,2 53900  53.2174  66.4333 0001133  94.6595 265.4527 15.08846677 30435,6917.86,95.437,540.509,538.941,0.0
53900.0,STARLINK-5045,PAYLOAD,2023-04-09 15:24:21,15.08840702,0.0001188,53.2182,64.9472,87.2543,272.8586,0.00010636,1.405e-05,0.0,0 STARLINK-5045,1 53900U 22119Q   23099.64191218  .00001405  00000-0  10636-3 0  9996,2 53900  53.2182  64.9472 0001188  87.2543 272.8586 15.08840702 30487,6917.878,95.438,540.565,538.921,0.0
53900.0,STARLINK-5045,PAYLOAD,2023-04-09 21:45:53,15.08838311,0.0001304,53.2173,63.7579,91.6463,268.4679,7.6206e-05,9.25e-06,0.0,0 STARLINK-5045,1 53900U 22119Q   23099.90687412  .00000925  00000-0  76206-4 0  9993,2 53900  53.2173  63.7579 0001304  91.6463 268.4679 15.08838311 30940,6917.886,95.438,540.653,538.848,0.0
53900.0,STARLINK-5045,PAYLOAD,2023-04-10 07:18:12,15.08841257,0.0001182,53.2175,61.9728,95.4979,264.6148,5.5587e-05,5.97e-06,0.0,0 STARLINK-5045,1 53900U 22119Q   23100.30431274  .00000597  00000-0  55587-4 0  9997,2 53900  53.2175  61.9728 0001182  95.4979 264.6148 15.08841257 31006,6917.877,95.437,540.559,538.924,0.0
53900.0,STARLINK-5045,PAYLOAD,2023-04-10 21:36:40,15.08843127,0.0001252,53.2179,59.2966,101.2127,258.9005,6.2358e-05,7.05e-06,0.0,0 STARLINK-5045,1 53900U 22119Q   23100.90047014  .00000705  00000-0  62358-4 0  9993,2 53900  53.2179  59.2966 0001252 101.2127 258.9005 15.08843127 31098,6917.871,95.437,540.602,538.87,0.0
53900.0,STARLINK-5045,PAYLOAD,2023-04-11 02:22:49,15.08846423,0.0001252,53.2178,58.4046,100.5344,259.5789,8.8346e-05,1.119e-05,0.0,0 STARLINK-5045,1 53900U 22119Q   23101.09918682  .00001119  00000-0  88346-4 0  9997,2 53900  53.2178  58.4046 0001252 100.5344 259.5789 15.08846423 30705,6917.861,95.437,540.592,538.86,0.0
53900.0,STARLINK-5045,PAYLOAD,2023-04-11 07:08:58,15.08851343,0.0001254,53.2183,57.5129,99.2252,260.8883,0.00012501,1.703e-05,0.0,0 STARLINK-5045,1 53900U 22119Q   23101.29790217  .00001703  00000-0  12501-3 0  9999,2 53900  53.2183  57.5129 0001254  99.2252 260.8883 15.08851343 31154,6917.846,95.437,540.578,538.843,0.0
53900.0,STARLINK-5045,PAYLOAD,2023-04-11 21:27:28,15.08829134,0.0001241,53.2183,54.8353,107.0137,253.0991,1.0999e-05,-1.13e-06,0.0,0 STARLINK-5045,1 53900U 22119Q   23101.89408175 -.00000113  00000-0  10999-4 0  9999,2 53900  53.2183  54.8353 0001241 107.0137 253.0991 15.08829134 31246,6917.914,95.438,540.637,538.92,0.0
53900.0,STARLINK-5045,PAYLOAD,2023-04-12 03:49:00,15.08837418,0.0001217,53.2173,53.6471,97.0907,263.0223,4.509e-05,4.3e-06,0.0,0 STARLINK-5045,1 53900U 22119Q   23102.15903532  .00000430  00000-0  45090-4 0  9997,2 53900  53.2173  53.6471 0001217  97.0907 263.0223 15.08837418 30869,6917.888,95.438,540.595,538.911,0.0
53900.0,STARLINK-5045,PAYLOAD,2023-04-12 13:21:19,15.08838271,0.0001199,53.2172,51.8631,98.3257,261.7871,5.396e-05,5.71e-06,0.0,0 STARLINK-5045,1 53900U 22119Q   23102.55647596  .00000571  00000-0  53960-4 0  9997,2 53900  53.2172  51.8631 0001199  98.3257 261.7871 15.08838271 31343,6917.886,95.438,540.58,538.921,0.0
53900.0,STARLINK-5045,PAYLOAD,2023-04-13 05:15:10,15.08843547,0.0001398,53.2178,48.8913,105.1387,254.976,0.00019597,2.833e-05,0.0,0 STARLINK-5045,1 53900U 22119Q   23103.21887631  .00002833  00000-0  19597-3 0  9997,2 53900  53.2178  48.8913 0001398 105.1387 254.9760 15.08843547 31444,6917.87,95.437,540.702,538.767,0.0
53900.0,STARLINK-5045,PAYLOAD,2023-04-13 13:12:06,15.08844387,0.0001352,53.2178,47.405,98.9744,261.1401,0.00023417,3.441e-05,0.0,0 STARLINK-5045,1 53900U 22119Q   23103.55007594  .00003441  00000-0  23417-3 0  9998,2 53900  53.2178  47.4050 0001352  98.9744 261.1401 15.08844387 31071,6917.867,95.437,540.667,538.797,0.0
53900.0,STARLINK-5045,PAYLOAD,2023-04-14 05:05:57,15.08851607,0.0001353,53.2172,44.431,99.4974,260.6171,0.00035006,5.289e-05,0.0,0 STARLINK-5045,1 53900U 22119Q   23104.21247449  .00005289  00000-0  35006-3 0  9996,2 53900  53.2172  44.4310 0001353  99.4974 260.6171 15.08851607 31591,6917.845,95.437,540.646,538.774,0.0
53900.0,STARLINK-5045,PAYLOAD,2023-04-15 04:56:44,15.08849819,0.0001377,53.2162,39.969,95.4496,264.6653,0.00028187,4.202e-05,0.0,0 STARLINK-5045,1 53900U 22119Q   23105.20607475  .00004202  00000-0  28187-3 0  9991,2 53900  53.2162  39.9690 0001377  95.4496 264.6653 15.08849819 31323,6917.85,95.437,540.668,538.763,0.0
53900.0,STARLINK-5045,PAYLOAD,2023-04-16 01:36:46,15.08840977,0.0001511,53.2162,36.1033,86.4178,273.6987,0.00020092,2.911e-05,0.0,0 STARLINK-5045,1 53900U 22119Q   23106.06720011  .00002911  00000-0  20092-3 0  9990,2 53900  53.2162  36.1033 0001511  86.4178 273.6987 15.08840977 31450,6917.877,95.437,540.788,538.697,0.0
53900.0,STARLINK-5045,PAYLOAD,2023-04-16 04:47:32,15.08845847,0.0001501,53.217,35.5065,93.0573,267.0591,0.00031071,4.661e-05,0.0,0 STARLINK-5045,1 53900U 22119Q   23106.19967867  .00004661  00000-0  31071-3 0  9999,2 53900  53.2170  35.5065 0001501  93.0573 267.0591 15.08845847 31896,6917.863,95.437,540.766,538.689,0.0
